0 SL-14 DEB
1 26016U 91068AB  13284.18295936  .00000208  00000-0  72229-3 0  3203
2 26016 081.9112 351.7757 0240927 194.9295 226.6803 12.84296114 26325
0 SL-14 DEB
1 26016U 91068AB  13286.69076150  .00000305  00000-0  10796-2 0  3215
2 26016 081.9107 349.9589 0240994 189.1362 301.3955 12.84296257 26648
0 SL-14 DEB
1 26016U 91068AB  13289.16990346  .00000233  00000-0  81337-3 0  3223
2 26016 081.9101 348.1626 0241055 183.4057 243.6054 12.84298919 26962
0 SL-14 DEB
1 26016U 91068AB  13291.50730449  .00000254  00000-0  88821-3 0  3239
2 26016 081.9097 346.4688 0241093 178.0076 250.4977 12.84299632 27265
0 SL-14 DEB
1 26016U 91068AB  13293.63002376  .00000196  00000-0  67808-3 0  3244
2 26016 081.9096 344.9304 0241118 173.0971 344.8281 12.84301329 27532
0 SL-14 DEB
1 26016U 91068AB  13296.10163587  .00000243  00000-0  84773-3 0  3255
2 26016 081.9095 343.1391 0241138 167.3844 252.2667 12.84302166 27849
